1 45538U 20025H   23140.96110204  .00027574  00000-0  18608-2 0  9997
2 45538  53.0551  22.3156 0001297  74.4006 285.7126 15.06439939170205
1 45538U 20025H   23141.69093486  .00014100  00000-0  96420-3 0  9990
2 45538  53.0553  19.0394 0000862 101.5923 258.5163 15.06376743170315
1 45538U 20025H   23141.95633248  .00021264  00000-0  14442-2 0  9997
2 45538  53.0550  17.8475 0001056 101.4615 258.6493 15.06346154170940
1 45538U 20025H   23141.95633248  .00021264  00000-0  14442-2 0  9997
2 45538  53.0550  17.8475 0001056 101.4615 258.6493 15.06346154170355
1 45538U 20025H   23142.35442591  .00029847  00000-0  20161-2 0  9991
2 45538  53.0549  16.0612 0001250 108.3540 251.7585 15.06364660171007
1 45538U 20025H   23143.01790431  .00022250  00000-0  15084-2 0  9993
2 45538  53.0546  13.0826 0001181 106.1717 253.9402 15.06387779170516
1 45538U 20025H   23143.88041628  .00014739  00000-0  10062-2 0  9999
2 45538  53.0540   9.2100 0001116 105.0177 255.0936 15.06402732171230
1 45538U 20025H   23143.94676258  .00013973  00000-0  95490-3 0  9997
2 45538  53.0543   8.9120 0001161 106.2358 253.8759 15.06405986171249
1 45538U 20025H   23143.94676258  .00013973  00000-0  95490-3 0  9997
2 45538  53.0543   8.9120 0001161 106.2358 253.8759 15.06405986170653
1 45538U 20025H   23145.87079958  .00005949  00000-0  41777-3 0  9998
2 45538  53.0552   0.2756 0001098 111.3697 248.7409 15.06414061171532
1 45538U 20025H   23145.87079958  .00005949  00000-0  41777-3 0  9998
2 45538  53.0552   0.2756 0001098 111.3697 248.7409 15.06414061170946
1 45538U 20025H   23146.60061135  .00010596  00000-0  72880-3 0  9991
2 45538  53.0557 356.9996 0001075  93.8407 266.2705 15.06417047171645
1 45538U 20025H   23146.73330291  .00010998  00000-0  75565-3 0  9996
2 45538  53.0555 356.4050 0001103  91.3575 268.7540 15.06420990171072
1 45538U 20025H   23146.86599370  .00011671  00000-0  80053-3 0  9992
2 45538  53.0550 355.8076 0001132  88.8814 271.2305 15.06425533171680
1 45538U 20025H   23147.86120041 -.00000714  00000-0 -29071-4 0  9990
2 45538  53.0546 351.3396 0001206 103.9025 256.2098 15.06393198171241
1 45538U 20025H   23148.25928379  .00010191  00000-0  70209-3 0  9990
2 45538  53.0547 349.5530 0001136 102.5085 257.6031 15.06396434171893
1 45538U 20025H   23148.85640099  .00016668  00000-0  11347-2 0  9998
2 45538  53.0549 346.8726 0001005 102.6061 257.5040 15.06418316171390
1 45538U 20025H   23148.92274680  .00016861  00000-0  11475-2 0  9992
2 45538  53.0549 346.5747 0001005 102.9437 257.1665 15.06420755171995
1 45538U 20025H   23149.25448551  .00006255  00000-0  43841-3 0  9998
2 45538  53.0544 345.0828 0001751  80.2239 279.8948 15.06405229172041
1 45538U 20025H   23149.25448551  .00006255  00000-0  43841-3 0  9998
2 45538  53.0544 345.0828 0001751  80.2239 279.8948 15.06405229171455
1 45538U 20025H   23149.71891832 -.00002565  00000-0 -15339-3 0  9996
2 45538  53.0557 343.0040 0001730  87.4519 272.6668 15.06387510171520
1 45538U 20025H   23149.91795755 -.00000685  00000-0 -27153-4 0  9994
2 45538  53.0532 342.1028 0000938 123.7058 236.4020 15.06387555172148
1 45538U 20025H   23150.51508518  .00013528  00000-0  92538-3 0  9997
2 45538  53.0542 339.4266 0000910  87.1673 272.9420 15.06397130172237
1 45538U 20025H   23150.78047108  .00015674  00000-0  10686-2 0  9996
2 45538  53.0542 338.2355 0000934  84.4226 275.6870 15.06407619172270
1 45538U 20025H   23150.78047108  .00015674  00000-0  10686-2 0  9996
2 45538  53.0542 338.2355 0000934  84.4226 275.6870 15.06407619171684
1 45538U 20025H   23151.24489685  .00013581  00000-0  92855-3 0  9992
2 45538  53.0545 336.1509 0000653  84.7937 275.3126 15.06413509171759
1 45538U 20025H   23151.51028651  .00008080  00000-0  56062-3 0  9992
2 45538  53.0544 334.9589 0001374  98.1521 261.9624 15.06406741172385
1 45538U 20025H   23151.77567458  .00001466  00000-0  11731-3 0  9998
2 45538  53.0540 333.7680 0000971  80.7302 279.3797 15.06397420172428
1 45538U 20025H   23151.77567458  .00001466  00000-0  11731-3 0  9998
2 45538  53.0540 333.7680 0000971  80.7302 279.3797 15.06397420171832
1 45538U 20025H   23152.50547833  .00011151  00000-0  76577-3 0  9996
2 45538  53.0550 330.4896 0001362  96.1961 263.9183 15.06426434172537
1 45538U 20025H   23152.50547833  .00011151  00000-0  76577-3 0  9996
2 45538  53.0550 330.4896 0001362  96.1961 263.9183 15.06426434171941
1 45538U 20025H   23153.50067701  .00002116  00000-0  16089-3 0  9991
2 45538  53.0546 326.0222 0001756 119.5465 240.5699 15.06411795172090
1 45538U 20025H   23153.76606839 -.00001200  00000-0 -61709-4 0  9995
2 45538  53.0546 324.8321 0001036 102.9168 257.1937 15.06386991172721
1 45538U 20025H   23153.76606839 -.00001200  00000-0 -61709-4 0  9995
2 45538  53.0546 324.8321 0001036 102.9168 257.1937 15.06386991172136
1 45538U 20025H   23154.42954570  .00012288  00000-0  84258-3 0  9996
2 45538  53.0544 321.8528 0000922 106.2909 253.8181 15.06391317172821
1 45538U 20025H   23154.76127859  .00015486  00000-0  10561-2 0  9993
2 45538  53.0545 320.3642 0000914 107.6332 252.4757 15.06405361172873
1 45538U 20025H   23154.76127859  .00015486  00000-0  10561-2 0  9993
2 45538  53.0545 320.3642 0000914 107.6332 252.4757 15.06405361172288
1 45538U 20025H   23155.15936191 -.00000791  00000-0 -34248-4 0  9999
2 45538  53.0544 318.5779 0000947  97.9966 262.1130 15.06390016172347
1 45538U 20025H   23155.55744656  .00001626  00000-0  12806-3 0  9997
2 45538  53.0543 316.7902 0001126  88.3386 271.7732 15.06390855172990
1 45538U 20025H   23155.82283602  .00006226  00000-0  43654-3 0  9992
2 45538  53.0546 315.5991 0000919  88.7865 271.3229 15.06392382173033
1 45538U 20025H   23156.41995612  .00017646  00000-0  12002-2 0  9999
2 45538  53.0548 312.9186 0000875  86.8809 273.2280 15.06412088173124
1 45538U 20025H   23156.41995612  .00017646  00000-0  12002-2 0  9999
2 45538  53.0548 312.9186 0000875  86.8809 273.2280 15.06412088172538
1 45538U 20025H   23156.75168443  .00020898  00000-0  14166-2 0  9996
2 45538  53.0549 311.4296 0000812  85.7131 274.3951 15.06429111173175
1 45538U 20025H   23157.41515645  .00006863  00000-0  47910-3 0  9990
2 45538  53.0550 308.4514 0001002  71.3220 288.7878 15.06408203172689
1 45538U 20025H   23157.54785072  .00001974  00000-0  15135-3 0  9999
2 45538  53.0543 307.8550 0001400  84.3968 275.7180 15.06400298173295
1 45538U 20025H   23157.61419757  .00001973  00000-0  15134-3 0  9999
2 45538  53.0548 307.5574 0000976  82.8121 277.2978 15.06397260172716
1 45538U 20025H   23157.81324122  .00023489  00000-0  15908-2 0  9996
2 45538  53.0546 306.6640 0001101  81.2087 278.9027 15.06393992173333
1 45538U 20025H   23158.14497376  .00021215  00000-0  14385-2 0  9998
2 45538  53.0548 305.1746 0001101  81.3146 278.7968 15.06409153172791
1 45538U 20025H   23158.54304853  .00019011  00000-0  12908-2 0  9999
2 45538  53.0547 303.3874 0001180  85.1293 274.9830 15.06427009173443
1 45538U 20025H   23158.80842936  .00023442  00000-0  15857-2 0  9996
2 45538  53.0549 302.1962 0001087  76.7040 283.4070 15.06440893173483
1 45538U 20025H   23159.40555708  .00012955  00000-0  88704-3 0  9990
2 45538  53.0547 299.5153 0001017 104.2738 255.8363 15.06399348172986
1 45538U 20025H   23159.53825308  .00005135  00000-0  36350-3 0  9992
2 45538  53.0546 298.9165 0000805  97.6457 262.4624 15.06384035173597
1 45538U 20025H   23159.53825308  .00005135  00000-0  36350-3 0  9992
2 45538  53.0546 298.9165 0000805  97.6457 262.4624 15.06384035173003
1 45538U 20025H   23159.67094708 -.00000513  00000-0 -15595-4 0  9995
2 45538  53.0545 298.3229 0000873  91.1809 268.9280 15.06390869173610
1 45538U 20025H   23160.40076427  .00013122  00000-0  89805-3 0  9998
2 45538  53.0542 295.0437 0000767  81.9956 278.1120 15.06404291173727
1 45538U 20025H   23160.66614739  .00017674  00000-0  12018-2 0  9997
2 45538  53.0537 293.8558 0000772  90.8553 269.2525 15.06420079173765
1 45538U 20025H   23160.66614739  .00017674  00000-0  12018-2 0  9997
2 45538  53.0537 293.8558 0000772  90.8553 269.2525 15.06420079173170
1 45538U 20025H   23161.06422583  .00006772  00000-0  47279-3 0  9991
2 45538  53.0570 292.0791 0000444 154.6630 205.4381 15.06422015173239
1 45538U 20025H   23161.39596730 -.00006528  00000-0 -41991-3 0  9999
2 45538  53.0541 290.5807 0000869  79.8441 280.2646 15.06386014173870
1 45538U 20025H   23161.39596730 -.00006528  00000-0 -41991-3 0  9999
2 45538  53.0541 290.5807 0000869  79.8441 280.2646 15.06386014173285
1 45538U 20025H   23161.79405605  .00021096  00000-0  14316-2 0  9998
2 45538  53.0538 288.7945 0000869  65.3970 294.7109 15.06381556173932
1 45538U 20025H   23162.05944446  .00022996  00000-0  15579-2 0  9991
2 45538  53.0537 287.6030 0000844  65.4296 294.6780 15.06395085173384
1 45538U 20025H   23162.32483090  .00023936  00000-0  16200-2 0  9991
2 45538  53.0536 286.4114 0000858  65.3051 294.8028 15.06408216174015
1 45538U 20025H   23162.72290739  .00024463  00000-0  16544-2 0  9998
2 45538  53.0535 284.6246 0000908  59.3968 300.7111 15.06424672174076
1 45538U 20025H   23163.05464283  .00016666  00000-0  11347-2 0  9994
2 45538  53.0533 283.1334 0000871  71.4623 288.6461 15.06413823173536
1 45538U 20025H   23163.58542365  .00018141  00000-0  12337-2 0  9990
2 45538  53.0534 280.7523 0001586  76.1457 283.9708 15.06397373174209
1 45538U 20025H   23163.58542365  .00018141  00000-0  12337-2 0  9990
2 45538  53.0534 280.7523 0001586  76.1457 283.9708 15.06397373173613
1 45538U 20025H   23164.44792598  .00020981  00000-0  14222-2 0  9991
2 45538  53.0535 276.8800 0001123  69.4412 290.6697 15.06426688174335
1 45538U 20025H   23165.31043368  .00016796  00000-0  11435-2 0  9994
2 45538  53.0536 273.0082 0001111  79.1759 280.9355 15.06409478173875
1 45538U 20025H   23165.44312473  .00015764  00000-0  10747-2 0  9993
2 45538  53.0543 272.4123 0000624 183.5672 176.5313 15.06403547174487
1 45538U 20025H   23165.70851867  .00011695  00000-0  80300-3 0  9999
2 45538  53.0541 271.2230 0000606  51.2821 308.8222 15.06387133173938
